CCSDS_OMM_VERS = 2.0
CREATION_DATE  = 
ORIGINATOR     = 

OBJECT_NAME    = IDEFIX & ARIANE 42P R/B
OBJECT_ID      = 2002-021B
CENTER_NAME    = EARTH
REF_FRAME      = TEME
TIME_SYSTEM    = UTC
MEAN_ELEMENT_THEORY = SGP/SGP4

EPOCH          = 2026-02-14T10:07:52.570272
MEAN_MOTION    = 14.31009265
ECCENTRICITY   = .0010617
INCLINATION    = 98.5846
RA_OF_ASC_NODE = 344.3099
ARG_OF_PERICENTER = 255.6700
MEAN_ANOMALY   = 104.3305

EPHEMERIS_TYPE = 0
CLASSIFICATION_TYPE = U
NORAD_CAT_ID   = 27422
ELEMENT_SET_NO = 999
REV_AT_EPOCH   = 24069
BSTAR          = .13688E-3
MEAN_MOTION_DOT = .316E-5
MEAN_MOTION_DDOT = 0

CCSDS_OMM_VERS = 2.0
CREATION_DATE  = 
ORIGINATOR     = 

OBJECT_NAME    = AQUA
OBJECT_ID      = 2002-022A
CENTER_NAME    = EARTH
REF_FRAME      = TEME
TIME_SYSTEM    = UTC
MEAN_ELEMENT_THEORY = SGP/SGP4

EPOCH          = 2026-02-14T15:05:17.183040
MEAN_MOTION    = 14.61918471
ECCENTRICITY   = .0001312
INCLINATION    = 98.4131
RA_OF_ASC_NODE = 12.5814
ARG_OF_PERICENTER = 49.3000
MEAN_ANOMALY   = 60.2452

EPHEMERIS_TYPE = 0
CLASSIFICATION_TYPE = U
NORAD_CAT_ID   = 27424
ELEMENT_SET_NO = 999
REV_AT_EPOCH   = 26536
BSTAR          = .22535E-3
MEAN_MOTION_DOT = .1079E-4
MEAN_MOTION_DDOT = 0

CCSDS_OMM_VERS = 2.0
CREATION_DATE  = 
ORIGINATOR     = 

OBJECT_NAME    = CZ-4B R/B
OBJECT_ID      = 2002-024C
CENTER_NAME    = EARTH
REF_FRAME      = TEME
TIME_SYSTEM    = UTC
MEAN_ELEMENT_THEORY = SGP/SGP4

EPOCH          = 2026-02-14T16:05:11.035104
MEAN_MOTION    = 14.14543388
ECCENTRICITY   = .0051215
INCLINATION    = 98.8893
RA_OF_ASC_NODE = 99.1871
ARG_OF_PERICENTER = 88.6221
MEAN_ANOMALY   = 25.5059

EPHEMERIS_TYPE = 0
CLASSIFICATION_TYPE = U
NORAD_CAT_ID   = 27432
ELEMENT_SET_NO = 999
REV_AT_EPOCH   = 22598
BSTAR          = .42287E-4
MEAN_MOTION_DOT = .38E-6
MEAN_MOTION_DDOT = 0

CCSDS_OMM_VERS = 2.0
CREATION_DATE  = 
ORIGINATOR     = 

OBJECT_NAME    = MIDORI II (ADEOS-II)
OBJECT_ID      = 2002-056A
CENTER_NAME    = EARTH
REF_FRAME      = TEME
TIME_SYSTEM    = UTC
MEAN_ELEMENT_THEORY = SGP/SGP4

EPOCH          = 2026-02-14T10:07:37.591968
MEAN_MOTION    = 14.29267679
ECCENTRICITY   = .0002189
INCLINATION    = 98.7727
RA_OF_ASC_NODE = 3.7451
ARG_OF_PERICENTER = 74.2496
MEAN_ANOMALY   = 285.8926

EPHEMERIS_TYPE = 0
CLASSIFICATION_TYPE = U
NORAD_CAT_ID   = 27597
ELEMENT_SET_NO = 999
REV_AT_EPOCH   = 20697
BSTAR          = .15985E-3
MEAN_MOTION_DOT = .361E-5
MEAN_MOTION_DDOT = 0

CCSDS_OMM_VERS = 2.0
CREATION_DATE  = 
ORIGINATOR     = 

OBJECT_NAME    = H-2A R/B
OBJECT_ID      = 2002-056E
CENTER_NAME    = EARTH
REF_FRAME      = TEME
TIME_SYSTEM    = UTC
MEAN_ELEMENT_THEORY = SGP/SGP4

EPOCH          = 2026-02-14T11:27:24.007680
MEAN_MOTION    = 14.33744493
ECCENTRICITY   = .0069201
INCLINATION    = 98.3159
RA_OF_ASC_NODE = 6.7328
ARG_OF_PERICENTER = 230.2092
MEAN_ANOMALY   = 238.4574

EPHEMERIS_TYPE = 0
CLASSIFICATION_TYPE = U
NORAD_CAT_ID   = 27601
ELEMENT_SET_NO = 999
REV_AT_EPOCH   = 21078
BSTAR          = .13104E-3
MEAN_MOTION_DOT = .332E-5
MEAN_MOTION_DDOT = 0

CCSDS_OMM_VERS = 2.0
CREATION_DATE  = 
ORIGINATOR     = 

OBJECT_NAME    = CZ-4B R/B
OBJECT_ID      = 2003-049C
CENTER_NAME    = EARTH
REF_FRAME      = TEME
TIME_SYSTEM    = UTC
MEAN_ELEMENT_THEORY = SGP/SGP4

EPOCH          = 2026-02-14T13:15:32.505120
MEAN_MOTION    = 14.54995031
ECCENTRICITY   = .0047185
INCLINATION    = 98.6853
RA_OF_ASC_NODE = 39.5542
ARG_OF_PERICENTER = 303.2034
MEAN_ANOMALY   = 56.4642

EPHEMERIS_TYPE = 0
CLASSIFICATION_TYPE = U
NORAD_CAT_ID   = 28059
ELEMENT_SET_NO = 999
REV_AT_EPOCH   = 18323
BSTAR          = .12626E-3
MEAN_MOTION_DOT = .5E-5
MEAN_MOTION_DDOT = 0

CCSDS_OMM_VERS = 2.0
CREATION_DATE  = 
ORIGINATOR     = 

OBJECT_NAME    = CZ-2C R/B
OBJECT_ID      = 2004-012C
CENTER_NAME    = EARTH
REF_FRAME      = TEME
TIME_SYSTEM    = UTC
MEAN_ELEMENT_THEORY = SGP/SGP4

EPOCH          = 2026-02-14T15:02:08.790432
MEAN_MOTION    = 15.61820769
ECCENTRICITY   = .0015359
INCLINATION    = 97.7296
RA_OF_ASC_NODE = 108.7791
ARG_OF_PERICENTER = 39.2993
MEAN_ANOMALY   = 320.9375

EPHEMERIS_TYPE = 0
CLASSIFICATION_TYPE = U
NORAD_CAT_ID   = 28222
ELEMENT_SET_NO = 999
REV_AT_EPOCH   = 20067
BSTAR          = .46986E-3
MEAN_MOTION_DOT = .4094E-3
MEAN_MOTION_DDOT = 0

CCSDS_OMM_VERS = 2.0
CREATION_DATE  = 
ORIGINATOR     = 

OBJECT_NAME    = SL-16 R/B
OBJECT_ID      = 2004-021B
CENTER_NAME    = EARTH
REF_FRAME      = TEME
TIME_SYSTEM    = UTC
MEAN_ELEMENT_THEORY = SGP/SGP4

EPOCH          = 2026-02-14T14:48:17.256960
MEAN_MOTION    = 14.14593066
ECCENTRICITY   = .0003187
INCLINATION    = 70.9990
RA_OF_ASC_NODE = 280.9146
ARG_OF_PERICENTER = 66.3274
MEAN_ANOMALY   = 293.8182

EPHEMERIS_TYPE = 0
CLASSIFICATION_TYPE = U
NORAD_CAT_ID   = 28353
ELEMENT_SET_NO = 999
REV_AT_EPOCH   = 11957
BSTAR          = .1925E-3
MEAN_MOTION_DOT = .322E-5
MEAN_MOTION_DDOT = 0

CCSDS_OMM_VERS = 2.0
CREATION_DATE  = 
ORIGINATOR     = 

OBJECT_NAME    = CZ-4B R/B
OBJECT_ID      = 2004-035C
CENTER_NAME    = EARTH
REF_FRAME      = TEME
TIME_SYSTEM    = UTC
MEAN_ELEMENT_THEORY = SGP/SGP4

EPOCH          = 2026-02-14T14:36:21.610080
MEAN_MOTION    = 15.28628957
ECCENTRICITY   = .0033722
INCLINATION    = 97.3540
RA_OF_ASC_NODE = 80.1318
ARG_OF_PERICENTER = 52.8877
MEAN_ANOMALY   = 307.5436

EPHEMERIS_TYPE = 0
CLASSIFICATION_TYPE = U
NORAD_CAT_ID   = 28415
ELEMENT_SET_NO = 999
REV_AT_EPOCH   = 17638
BSTAR          = .25128E-3
MEAN_MOTION_DOT = .704E-4
MEAN_MOTION_DDOT = 0

CCSDS_OMM_VERS = 2.0
CREATION_DATE  = 
ORIGINATOR     = 

OBJECT_NAME    = CZ-2C R/B
OBJECT_ID      = 2004-046B
CENTER_NAME    = EARTH
REF_FRAME      = TEME
TIME_SYSTEM    = UTC
MEAN_ELEMENT_THEORY = SGP/SGP4

EPOCH          = 2026-02-14T15:02:30.710112
MEAN_MOTION    = 14.26983946
ECCENTRICITY   = .0138474
INCLINATION    = 98.1995
RA_OF_ASC_NODE = 322.0436
ARG_OF_PERICENTER = 222.7441
MEAN_ANOMALY   = 136.2905

EPHEMERIS_TYPE = 0
CLASSIFICATION_TYPE = U
NORAD_CAT_ID   = 28480
ELEMENT_SET_NO = 999
REV_AT_EPOCH   = 10521
BSTAR          = .58798E-4
MEAN_MOTION_DOT = .116E-5
MEAN_MOTION_DDOT = 0

CCSDS_OMM_VERS = 2.0
CREATION_DATE  = 
ORIGINATOR     = 

OBJECT_NAME    = ARIANE 5 R/B
OBJECT_ID      = 2004-049H
CENTER_NAME    = EARTH
REF_FRAME      = TEME
TIME_SYSTEM    = UTC
MEAN_ELEMENT_THEORY = SGP/SGP4

EPOCH          = 2026-02-14T10:58:56.498304
MEAN_MOTION    = 14.85219724
ECCENTRICITY   = .0085378
INCLINATION    = 98.2588
RA_OF_ASC_NODE = 213.0514
ARG_OF_PERICENTER = 66.7954
MEAN_ANOMALY   = 294.2224

EPHEMERIS_TYPE = 0
CLASSIFICATION_TYPE = U
NORAD_CAT_ID   = 28499
ELEMENT_SET_NO = 999
REV_AT_EPOCH   = 14234
BSTAR          = .1197E-3
MEAN_MOTION_DOT = .1031E-4
MEAN_MOTION_DDOT = 0

CCSDS_OMM_VERS = 2.0
CREATION_DATE  = 
ORIGINATOR     = 

OBJECT_NAME    = CZ-2D R/B
OBJECT_ID      = 2005-024B
CENTER_NAME    = EARTH
REF_FRAME      = TEME
TIME_SYSTEM    = UTC
MEAN_ELEMENT_THEORY = SGP/SGP4

EPOCH          = 2026-02-14T14:28:18.806880
MEAN_MOTION    = 15.58074423
ECCENTRICITY   = .0007664
INCLINATION    = 97.3612
RA_OF_ASC_NODE = 59.9407
ARG_OF_PERICENTER = 101.8414
MEAN_ANOMALY   = 258.3702

EPHEMERIS_TYPE = 0
CLASSIFICATION_TYPE = U
NORAD_CAT_ID   = 28738
ELEMENT_SET_NO = 999
REV_AT_EPOCH   = 13618
BSTAR          = .4083E-3
MEAN_MOTION_DOT = .30669E-3
MEAN_MOTION_DDOT = 0

