IDEFIX & ARIANE 42P R/B 
1 27422U 02021B   26045.42213623  .00000316  00000+0  13688-3 0  9990
2 27422  98.5846 344.3099 0010617 255.6700 104.3305 14.31009265240699
AQUA                    
1 27424U 02022A   26045.62867110  .00001079  00000+0  22535-3 0  9999
2 27424  98.4131  12.5814 0001312  49.3000  60.2452 14.61918471265364
CZ-4B R/B               
1 27432U 02024C   26045.67026661  .00000038  00000+0  42287-4 0  9994
2 27432  98.8893  99.1871 0051215  88.6221  25.5059 14.14543388225984
MIDORI II (ADEOS-II)    
1 27597U 02056A   26045.42196287  .00000361  00000+0  15985-3 0  9999
2 27597  98.7727   3.7451 0002189  74.2496 285.8926 14.29267679206971
H-2A R/B                
1 27601U 02056E   26045.47736120  .00000332  00000+0  13104-3 0  9995
2 27601  98.3159   6.7328 0069201 230.2092 238.4574 14.33744493210788
CZ-4B R/B               
1 28059U 03049C   26045.55245955  .00000500  00000+0  12626-3 0  9991
2 28059  98.6853  39.5542 0047185 303.2034  56.4642 14.54995031183238
CZ-2C R/B               
1 28222U 04012C   26045.62649063  .00040940  00000+0  46986-3 0  9998
2 28222  97.7296 108.7791 0015359  39.2993 320.9375 15.61820769200678
SL-16 R/B               
1 28353U 04021B   26045.61686640  .00000322  00000+0  19250-3 0  9998
2 28353  70.9990 280.9146 0003187  66.3274 293.8182 14.14593066119579
CZ-4B R/B               
1 28415U 04035C   26045.60858345  .00007040  00000+0  25128-3 0  9999
2 28415  97.3540  80.1318 0033722  52.8877 307.5436 15.28628957176381
CZ-2C R/B               
1 28480U 04046B   26045.62674433  .00000116  00000+0  58798-4 0  9996
2 28480  98.1995 322.0436 0138474 222.7441 136.2905 14.26983946105211
ARIANE 5 R/B            
1 28499U 04049H   26045.45759836  .00001031  00000+0  11970-3 0  9998
2 28499  98.2588 213.0514 0085378  66.7954 294.2224 14.85219724142340
CZ-2D R/B               
1 28738U 05024B   26045.60299545  .00030669  00000+0  40830-3 0  9997
2 28738  97.3612  59.9407 0007664 101.8414 258.3702 15.58074423136189
